[{"OBJECT_NAME":"GOSAT 2 (IBUKI 1)","OBJECT_ID":"2018-084B","EPOCH":"2026-03-09T20:32:04.212384","MEAN_MOTION":14.84242316,"ECCENTRICITY":0.0001478,"INCLINATION":97.8678,"RA_OF_ASC_NODE":181.6299,"ARG_OF_PERICENTER":93.8371,"MEAN_ANOMALY":266.3012,"EPHEMERIS_TYPE":0,"CLASSIFICATION_TYPE":"U","NORAD_CAT_ID":43672,"ELEMENT_SET_NO":999,"REV_AT_EPOCH":39882,"BSTAR":0.00032562653,"MEAN_MOTION_DOT":2.674e-5,"MEAN_MOTION_DDOT":0},{"OBJECT_NAME":"CZ-6A DEB","OBJECT_ID":"2024-140QP","EPOCH":"2026-03-09T13:31:56.474976","MEAN_MOTION":14.76483718,"ECCENTRICITY":0.0057859,"INCLINATION":88.93,"RA_OF_ASC_NODE":276.8589,"ARG_OF_PERICENTER":231.0793,"MEAN_ANOMALY":128.5262,"EPHEMERIS_TYPE":0,"CLASSIFICATION_TYPE":"U","NORAD_CAT_ID":61145,"ELEMENT_SET_NO":999,"REV_AT_EPOCH":8247,"BSTAR":0.0035171,"MEAN_MOTION_DOT":0.00025246,"MEAN_MOTION_DDOT":0}]
